0 COSMOS 2251 DEB
1 35837U 93036ATK 13283.20550125  .00006443  00000-0  58755-2 0  2402
2 35837 073.7347 200.4957 0502146 021.3595 046.2252 13.38098063217023
0 COSMOS 2251 DEB
1 35837U 93036ATK 13285.73951988  .00003899  00000-0  35572-2 0  2419
2 35837 073.7347 196.4566 0502727 017.0175 013.0186 13.38120193217369
0 COSMOS 2251 DEB
1 35837U 93036ATK 13287.16745495  .00004562  00000-0  41562-2 0  2427
2 35837 073.7355 194.1811 0502868 014.6193 051.6668 13.38129273217557
0 COSMOS 2251 DEB
1 35837U 93036ATK 13290.06943940  .00004351  00000-0  40095-2 0  2432
2 35837 073.7388 189.5752 0498941 009.9703 351.1078 13.38155813217940
0 COSMOS 2251 DEB
1 35837U 93036ATK 13290.08105388  .00004696  00000-0  42703-2 0  2441
2 35837 073.7354 189.5380 0503263 009.6613 047.2941 13.38153922217942
0 COSMOS 2251 DEB
1 35837U 93036ATK 13295.09127583  .00003652  00000-0  33200-2 0  2452
2 35837 073.7342 181.5525 0503665 001.1726 063.4449 13.38188299218613
